NORAD_CAT_ID,OBJECT_NAME,OBJECT_TYPE,EPOCH,MEAN_MOTION,ECCENTRICITY,INCLINATION,RA_OF_ASC_NODE,ARG_OF_PERICENTER,MEAN_ANOMALY,BSTAR,MEAN_MOTION_DOT,MEAN_MOTION_DDOT,TLE_LINE0,TLE_LINE1,TLE_LINE2,SEMIMAJOR_AXIS,PERIOD,APOGEE,PERIGEE,DECAYED
56808.0,STARLINK-6042,PAYLOAD,2023-11-17 22:25:20,15.699355,0.0003505,70.0006,292.5872,268.4211,91.6583,3.5853e-05,4.102e-05,0.0,0 STARLINK-6042,1 56808U 23078AT  23321.93426576  .00004102  00000-0  35853-4 0  9995,2 56808  70.0006 292.5872 0003505 268.4211  91.6583 15.69935500 26850,6737.219,91.724,361.445,356.722,0.0
56808.0,STARLINK-6042,PAYLOAD,2023-11-18 04:32:21,15.69927359,0.0002936,70.001,291.8707,269.4144,90.6715,1.8054e-05,1.959e-05,0.0,0 STARLINK-6042,1 56808U 23078AT  23322.18913650  .00001959  00000-0  18054-4 0  9998,2 56808  70.0010 291.8707 0002936 269.4144  90.6715 15.69927359 27150,6737.242,91.724,361.085,357.129,0.0
56808.0,STARLINK-6042,PAYLOAD,2023-11-18 07:35:51,15.69924158,0.0003264,70.0008,291.513,270.5675,89.5147,9.2025e-06,8.94e-06,0.0,0 STARLINK-6042,1 56808U 23078AT  23322.31657124  .00000894  00000-0  92025-5 0  9992,2 56808  70.0008 291.5130 0003264 270.5675  89.5147 15.69924158 26914,6737.251,91.724,361.315,356.917,0.0
56808.0,STARLINK-6042,PAYLOAD,2023-11-18 21:21:37,15.69930184,0.0003329,70.0008,289.9004,268.1489,91.9326,2.4685e-05,2.757e-05,0.0,0 STARLINK-6042,1 56808U 23078AT  23322.89001917  .00002757  00000-0  24685-4 0  9994,2 56808  70.0008 289.9004 0003329 268.1489  91.9326 15.69930184 27006,6737.234,91.724,361.342,356.856,0.0
56808.0,STARLINK-6042,PAYLOAD,2023-11-19 08:03:53,15.69926572,0.0003265,70.0019,288.6462,271.0965,88.9856,1.4042e-05,1.476e-05,0.0,0 STARLINK-6042,1 56808U 23078AT  23323.33603819  .00001476  00000-0  14042-4 0  9996,2 56808  70.0019 288.6462 0003265 271.0965  88.9856 15.69926572 27339,6737.244,91.724,361.309,356.909,0.0
56808.0,STARLINK-6042,PAYLOAD,2023-11-19 21:49:39,15.69928842,0.0003408,70.0016,287.034,266.2689,93.8117,1.9535e-05,2.137e-05,0.0,0 STARLINK-6042,1 56808U 23078AT  23323.90948605  .00002137  00000-0  19535-4 0  9991,2 56808  70.0016 287.0340 0003408 266.2689  93.8117 15.69928842 27160,6737.238,91.724,361.399,356.807,0.0
56808.0,STARLINK-6042,PAYLOAD,2023-11-20 07:00:10,15.69935669,0.0003173,70.0005,285.9597,263.8772,96.2062,3.5396e-05,4.047e-05,0.0,0 STARLINK-6042,1 56808U 23078AT  23324.29178384  .00004047  00000-0  35396-4 0  9998,2 56808  70.0005 285.9597 0003173 263.8772  96.2062 15.69935669 27222,6737.218,91.724,361.221,356.945,0.0
56808.0,STARLINK-6042,PAYLOAD,2023-11-20 14:38:56,15.69925763,0.0003089,70.0011,285.0643,268.1407,91.9435,1.5468e-05,1.648e-05,0.0,0 STARLINK-6042,1 56808U 23078AT  23324.61037198  .00001648  00000-0  15468-4 0  9993,2 56808  70.0011 285.0643 0003089 268.1407  91.9435 15.69925763 27535,6737.246,91.724,361.193,357.03,0.0
56808.0,STARLINK-6042,PAYLOAD,2023-11-20 22:17:41,15.69929885,0.0003421,70.0004,284.1679,270.7221,89.3582,2.6676e-05,2.997e-05,0.0,0 STARLINK-6042,1 56808U 23078AT  23324.92895218  .00002997  00000-0  26676-4 0  9993,2 56808  70.0004 284.1679 0003421 270.7221  89.3582 15.69929885 27329,6737.235,91.724,361.404,356.795,0.0
56808.0,STARLINK-6042,PAYLOAD,2023-11-20 23:49:27,15.69915057,0.0003243,70.0012,283.9893,260.3843,99.6986,-1.6372e-05,-2.18e-05,0.0,0 STARLINK-6042,1 56808U 23078AT  23324.99267398 -.00002180  00000-0 -16372-4 0  9990,2 56808  70.0012 283.9893 0003243 260.3843  99.6986 15.69915057 27597,6737.277,91.725,361.327,356.957,0.0
56808.0,STARLINK-6042,PAYLOAD,2023-11-21 07:28:12,15.69923339,0.0003145,70.001,283.0947,257.5362,102.5482,1.0116e-05,1.004e-05,0.0,0 STARLINK-6042,1 56808U 23078AT  23325.31125605  .00001004  00000-0  10116-4 0  9993,2 56808  70.0010 283.0947 0003145 257.5362 102.5482 15.69923339 27644,6737.253,91.724,361.237,356.999,0.0
56808.0,STARLINK-6042,PAYLOAD,2023-11-22 00:17:28,15.6993701,0.0003289,70.0002,281.1229,266.9231,93.1588,4.608e-05,5.334e-05,0.0,0 STARLINK-6042,1 56808U 23078AT  23326.01213390  .00005334  00000-0  46080-4 0  9999,2 56808  70.0002 281.1229 0003289 266.9231  93.1588 15.69937010 27750,6737.214,91.723,361.295,356.863,0.0
56808.0,STARLINK-6042,PAYLOAD,2023-11-22 06:24:29,15.69922942,0.00033,70.0002,280.4056,269.555,90.5267,2.966e-06,1.44e-06,0.0,0 STARLINK-6042,1 56808U 23078AT  23326.26700423  .00000144  00000-0  29660-5 0  9994,2 56808  70.0002 280.4056 0003300 269.5550  90.5267 15.69922942 27794,6737.254,91.724,361.343,356.896,0.0
56808.0,STARLINK-6042,PAYLOAD,2023-11-22 21:42:00,15.69931227,0.0003322,70.0001,278.6142,268.7114,91.3701,3.0658e-05,3.476e-05,0.0,0 STARLINK-6042,1 56808U 23078AT  23326.90416957  .00003476  00000-0  30658-4 0  9990,2 56808  70.0001 278.6142 0003322 268.7114  91.3701 15.69931227 27630,6737.231,91.724,361.334,356.858,0.0
56808.0,STARLINK-6042,PAYLOAD,2023-11-23 06:52:31,15.69923548,0.0002959,70.0009,277.542,261.6368,98.4492,2.3715e-05,2.64e-05,0.0,0 STARLINK-6042,1 56808U 23078AT  23327.28647694  .00002640  00000-0  23715-4 0  9994,2 56808  70.0009 277.5420 0002959 261.6368  98.4492 15.69923548 27950,6737.253,91.724,361.111,357.124,0.0
56808.0,STARLINK-6042,PAYLOAD,2023-11-23 22:10:02,15.69928692,0.0003462,70.0012,275.7497,258.8549,101.2257,5.5917e-05,6.517e-05,0.0,0 STARLINK-6042,1 56808U 23078AT  23327.92364174  .00006517  00000-0  55917-4 0  9990,2 56808  70.0012 275.7497 0003462 258.8549 101.2257 15.69928692 27796,6737.238,91.724,361.435,356.771,0.0
56808.0,STARLINK-6042,PAYLOAD,2023-11-24 07:20:34,15.69908039,0.0003,70.0008,274.6753,257.8874,102.1985,-2.6252e-05,-3.365e-05,0.0,0 STARLINK-6042,1 56808U 23078AT  23328.30594920 -.00003365  00000-0 -26252-4 0  9997,2 56808  70.0008 274.6753 0003000 257.8874 102.1985 15.69908039 28110,6737.297,91.725,361.183,357.141,0.0
56808.0,STARLINK-6042,PAYLOAD,2023-11-24 22:38:04,15.69939213,0.0002955,70.0022,272.8823,249.9555,110.1323,8.2615e-05,9.738e-05,0.0,0 STARLINK-6042,1 56808U 23078AT  23328.94310802  .00009738  00000-0  82615-4 0  9995,2 56808  70.0022 272.8823 0002955 249.9555 110.1323 15.69939213 27954,6737.208,91.723,361.064,357.082,0.0
56808.0,STARLINK-6042,PAYLOAD,2023-11-25 00:09:49,15.69937767,0.0003172,70.002,272.7035,263.1949,96.8886,6.4231e-05,7.522e-05,0.0,0 STARLINK-6042,1 56808U 23078AT  23329.00682462  .00007522  00000-0  64231-4 0  9990,2 56808  70.0020 272.7035 0003172 263.1949  96.8886 15.69937767 28220,6737.212,91.723,361.214,356.94,0.0
56808.0,STARLINK-6042,PAYLOAD,2023-11-25 06:16:50,15.69918425,0.0002632,70.0013,271.9855,280.3803,79.7096,-7.2292e-07,-2.99e-06,0.0,0 STARLINK-6042,1 56808U 23078AT  23329.26169897 -.00000299  00000-0 -72292-6 0  9994,2 56808  70.0013 271.9855 0002632 280.3803  79.7096 15.69918425 28002,6737.267,91.725,360.906,357.359,0.0
56808.0,STARLINK-6042,PAYLOAD,2023-11-25 21:34:20,15.69948294,0.0003222,70.001,270.1969,257.3123,102.7713,8.2636e-05,9.745e-05,0.0,0 STARLINK-6042,1 56808U 23078AT  23329.89885305  .00009745  00000-0  82636-4 0  9996,2 56808  70.0010 270.1969 0003222 257.3123 102.7713 15.69948294 28102,6737.182,91.723,361.218,356.876,0.0
56808.0,STARLINK-6042,PAYLOAD,2023-11-25 23:06:06,15.69944751,0.000339,70.0006,270.0194,263.7321,96.3489,6.9605e-05,8.172e-05,0.0,0 STARLINK-6042,1 56808U 23078AT  23329.96257038  .00008172  00000-0  69605-4 0  9994,2 56808  70.0006 270.0194 0003390 263.7321  96.3489 15.69944751 28374,6737.192,91.723,361.341,356.773,0.0
56808.0,STARLINK-6042,PAYLOAD,2023-11-26 05:13:06,15.69932577,0.0003059,70.0018,269.3016,281.8228,78.2625,1.9696e-05,2.157e-05,0.0,0 STARLINK-6042,1 56808U 23078AT  23330.21743972  .00002157  00000-0  19696-4 0  9993,2 56808  70.0018 269.3016 0003059 281.8228  78.2625 15.69932577 28419,6737.227,91.724,361.153,357.031,0.0
56808.0,STARLINK-6042,PAYLOAD,2023-11-26 22:02:23,15.69921502,0.0002979,70.0035,267.3308,215.2141,144.8858,1.3495e-05,1.41e-05,0.0,0 STARLINK-6042,1 56808U 23078AT  23330.91832917  .00001410  00000-0  13495-4 0  9990,2 56808  70.0035 267.3308 0002979 215.2141 144.8858 15.69921502 28262,6737.259,91.724,361.131,357.117,0.0
56808.0,STARLINK-6042,PAYLOAD,2023-11-27 04:09:24,15.69926908,0.0002457,70.0036,266.615,236.0863,124.01,4.96e-05,5.756e-05,0.0,0 STARLINK-6042,1 56808U 23078AT  23331.17319810  .00005756  00000-0  49600-4 0  9995,2 56808  70.0036 266.6150 0002457 236.0863 124.0100 15.69926908 28561,6737.243,91.724,360.763,357.453,0.0
56808.0,STARLINK-6042,PAYLOAD,2023-11-27 05:41:09,15.69916627,0.0002665,70.0017,266.4318,288.5657,71.5249,3.337e-05,3.8e-05,0.0,0 STARLINK-6042,1 56808U 23078AT  23331.23691973  .00003800  00000-0  33370-4 0  9990,2 56808  70.0017 266.4318 0002665 288.5657  71.5249 15.69916627 28576,6737.273,91.725,360.933,357.342,0.0
56808.0,STARLINK-6042,PAYLOAD,2023-11-27 22:30:26,15.69924967,0.0003702,70.0029,264.4693,280.2394,79.8384,4.2941e-05,4.954e-05,0.0,0 STARLINK-6042,1 56808U 23078AT  23331.93780111  .00004954  00000-0  42941-4 0  9995,2 56808  70.0029 264.4693 0003702 280.2394  79.8384 15.69924967 28424,6737.249,91.724,361.608,356.62,0.0
56808.0,STARLINK-6042,PAYLOAD,2023-11-28 04:37:26,15.69923396,0.0002442,70.003,263.7493,241.1235,118.9716,-1.2567e-05,-1.723e-05,0.0,0 STARLINK-6042,1 56808U 23078AT  23332.19266440 -.00001723  00000-0 -12567-4 0  9992,2 56808  70.0030 263.7493 0002442 241.1235 118.9716 15.69923396 28469,6737.253,91.724,360.763,357.473,0.0
56808.0,STARLINK-6042,PAYLOAD,2023-11-28 19:54:57,15.69935074,0.0002879,70.0015,261.9558,258.2648,101.8225,5.3577e-05,6.237e-05,0.0,0 STARLINK-6042,1 56808U 23078AT  23332.82982840  .00006237  00000-0  53577-4 0  9990,2 56808  70.0015 261.9558 0002879 258.2648 101.8225 15.69935074 28827,6737.22,91.724,361.024,357.145,0.0
56808.0,STARLINK-6042,PAYLOAD,2023-11-28 22:58:27,15.69935476,0.0003221,70.0018,261.5994,242.5567,117.5301,3.1827e-05,3.618e-05,0.0,0 STARLINK-6042,1 56808U 23078AT  23332.95726036  .00003618  00000-0  31827-4 0  9991,2 56808  70.0018 261.5994 0003221 242.5567 117.5301 15.69935476 28586,6737.219,91.724,361.254,356.914,0.0
